STARLINK-31640          
1 59748U 24090U   26068.32392241 -.00001083  00000+0 -29843-4 0  9999
2 59748  42.9976 185.5973 0001859 191.7433 168.3375 15.27571730103387
FLOCK 4G-6              
1 62660U 25009BD  26068.71061311  .00012261  00000+0  45910-3 0  9991
2 62660  97.3980 150.7943 0002380 348.2637  11.8546 15.27432125121307
